[
  {
    "COMMENT": "GENERATED VIA SPACETRACK.ORG API",
    "ORIGINATOR": "18 SPCS",
    "NORAD_CAT_ID": "54754",
    "OBJECT_NAME": "SWOT",
    "OBJECT_TYPE": "PAYLOAD",
    "CLASSIFICATION_TYPE": "U",
    "INTLDES": "22173A",
    "EPOCH": "2023-05-26 21:45:50",
    "EPOCH_MICROSECONDS": "211360",
    "MEAN_MOTION": "14.09852869",
    "ECCENTRICITY": "0.0000999",
    "INCLINATION": "77.6068",
    "RA_OF_ASC_NODE": "104.539",
    "ARG_OF_PERICENTER": "192.898",
    "MEAN_ANOMALY": "167.2152",
    "EPHEMERIS_TYPE": "0",
    "ELEMENT_SET_NO": "999",
    "REV_AT_EPOCH": "2274",
    "BSTAR": "0.00012883",
    "MEAN_MOTION_DOT": "0.00000224",
    "MEAN_MOTION_DDOT": "0",
    "FILE": "3917850",
    "TLE_LINE0": "0 SWOT",
    "TLE_LINE1": "1 54754U 22173A   23146.90683115  .00000224  00000-0  12883-3 0  9992",
    "TLE_LINE2": "2 54754  77.6068 104.5390 0000999 192.8980 167.2152 14.09852869 22748",
    "OBJECT_ID": "2022-173A",
    "OBJECT_NUMBER": "54754",
    "SEMIMAJOR_AXIS": "7238.012",
    "PERIOD": "102.138",
    "APOGEE": "860.600",
    "PERIGEE": "859.154",
    "DECAYED": "0"
  },
  {
    "COMMENT": "GENERATED VIA SPACETRACK.ORG API",
    "ORIGINATOR": "18 SPCS",
    "NORAD_CAT_ID": "54754",
    "OBJECT_NAME": "SWOT",
    "OBJECT_TYPE": "PAYLOAD",
    "CLASSIFICATION_TYPE": "U",
    "INTLDES": "22173A",
    "EPOCH": "2023-05-27 04:34:35",
    "EPOCH_MICROSECONDS": "315328",
    "MEAN_MOTION": "14.09852942",
    "ECCENTRICITY": "0.0000998",
    "INCLINATION": "77.6069",
    "RA_OF_ASC_NODE": "104.1495",
    "ARG_OF_PERICENTER": "192.524",
    "MEAN_ANOMALY": "167.5892",
    "EPHEMERIS_TYPE": "0",
    "ELEMENT_SET_NO": "999",
    "REV_AT_EPOCH": "2278",
    "BSTAR": "0.00012386",
    "MEAN_MOTION_DOT": "0.00000215",
    "MEAN_MOTION_DDOT": "0",
    "FILE": "3918182",
    "TLE_LINE0": "0 SWOT",
    "TLE_LINE1": "1 54754U 22173A   23147.19068652  .00000215  00000-0  12386-3 0  9995",
    "TLE_LINE2": "2 54754  77.6069 104.1495 0000998 192.5240 167.5892 14.09852942 22786",
    "OBJECT_ID": "2022-173A",
    "OBJECT_NUMBER": "54754",
    "SEMIMAJOR_AXIS": "7238.012",
    "PERIOD": "102.138",
    "APOGEE": "860.599",
    "PERIGEE": "859.155",
    "DECAYED": "0"
  },
  {
    "COMMENT": "GENERATED VIA SPACETRACK.ORG API",
    "ORIGINATOR": "18 SPCS",
    "NORAD_CAT_ID": "54754",
    "OBJECT_NAME": "SWOT",
    "OBJECT_TYPE": "PAYLOAD",
    "CLASSIFICATION_TYPE": "U",
    "INTLDES": "22173A",
    "EPOCH": "2023-05-27 21:36:28",
    "EPOCH_MICROSECONDS": "54944",
    "MEAN_MOTION": "14.09853278",
    "ECCENTRICITY": "0.000099",
    "INCLINATION": "77.607",
    "RA_OF_ASC_NODE": "103.1759",
    "ARG_OF_PERICENTER": "191.96",
    "MEAN_ANOMALY": "168.1534",
    "EPHEMERIS_TYPE": "0",
    "ELEMENT_SET_NO": "999",
    "REV_AT_EPOCH": "2288",
    "BSTAR": "0.00012211",
    "MEAN_MOTION_DOT": "0.00000212",
    "MEAN_MOTION_DDOT": "0",
    "FILE": "3918755",
    "TLE_LINE0": "0 SWOT",
    "TLE_LINE1": "1 54754U 22173A   23147.90032471  .00000212  00000-0  12211-3 0  9998",
    "TLE_LINE2": "2 54754  77.6070 103.1759 0000990 191.9600 168.1534 14.09853278 22889",
    "OBJECT_ID": "2022-173A",
    "OBJECT_NUMBER": "54754",
    "SEMIMAJOR_AXIS": "7238.011",
    "PERIOD": "102.138",
    "APOGEE": "860.592",
    "PERIGEE": "859.159",
    "DECAYED": "0"
  },
  {
    "COMMENT": "GENERATED VIA SPACETRACK.ORG API",
    "ORIGINATOR": "18 SPCS",
    "NORAD_CAT_ID": "54754",
    "OBJECT_NAME": "SWOT",
    "OBJECT_TYPE": "PAYLOAD",
    "CLASSIFICATION_TYPE": "U",
    "INTLDES": "22173A",
    "EPOCH": "2023-05-28 06:07:24",
    "EPOCH_MICROSECONDS": "422592",
    "MEAN_MOTION": "14.09853452",
    "ECCENTRICITY": "0.0000986",
    "INCLINATION": "77.6071",
    "RA_OF_ASC_NODE": "102.6891",
    "ARG_OF_PERICENTER": "191.7689",
    "MEAN_ANOMALY": "168.3445",
    "EPHEMERIS_TYPE": "0",
    "ELEMENT_SET_NO": "999",
    "REV_AT_EPOCH": "2293",
    "BSTAR": "0.00012746",
    "MEAN_MOTION_DOT": "0.00000221",
    "MEAN_MOTION_DDOT": "0",
    "FILE": "3919252",
    "TLE_LINE0": "0 SWOT",
    "TLE_LINE1": "1 54754U 22173A   23148.25514378  .00000221  00000-0  12746-3 0  9991",
    "TLE_LINE2": "2 54754  77.6071 102.6891 0000986 191.7689 168.3445 14.09853452 22934",
    "OBJECT_ID": "2022-173A",
    "OBJECT_NUMBER": "54754",
    "SEMIMAJOR_AXIS": "7238.010",
    "PERIOD": "102.138",
    "APOGEE": "860.589",
    "PERIGEE": "859.162",
    "DECAYED": "0"
  },
  {
    "COMMENT": "GENERATED VIA SPACETRACK.ORG API",
    "ORIGINATOR": "18 SPCS",
    "NORAD_CAT_ID": "54754",
    "OBJECT_NAME": "SWOT",
    "OBJECT_TYPE": "PAYLOAD",
    "CLASSIFICATION_TYPE": "U",
    "INTLDES": "22173A",
    "EPOCH": "2023-05-28 11:13:58",
    "EPOCH_MICROSECONDS": "237824",
    "MEAN_MOTION": "14.09853564",
    "ECCENTRICITY": "0.0000983",
    "INCLINATION": "77.6071",
    "RA_OF_ASC_NODE": "102.397",
    "ARG_OF_PERICENTER": "191.4362",
    "MEAN_ANOMALY": "168.6773",
    "EPHEMERIS_TYPE": "0",
    "ELEMENT_SET_NO": "999",
    "REV_AT_EPOCH": "2296",
    "BSTAR": "0.00012696",
    "MEAN_MOTION_DOT": "0.00000221",
    "MEAN_MOTION_DDOT": "0",
    "FILE": "3919224",
    "TLE_LINE0": "0 SWOT",
    "TLE_LINE1": "1 54754U 22173A   23148.46803516  .00000221  00000-0  12696-3 0  9993",
    "TLE_LINE2": "2 54754  77.6071 102.3970 0000983 191.4362 168.6773 14.09853564 22965",
    "OBJECT_ID": "2022-173A",
    "OBJECT_NUMBER": "54754",
    "SEMIMAJOR_AXIS": "7238.010",
    "PERIOD": "102.138",
    "APOGEE": "860.586",
    "PERIGEE": "859.163",
    "DECAYED": "0"
  },
  {
    "COMMENT": "GENERATED VIA SPACETRACK.ORG API",
    "ORIGINATOR": "18 SPCS",
    "NORAD_CAT_ID": "54754",
    "OBJECT_NAME": "SWOT",
    "OBJECT_TYPE": "PAYLOAD",
    "CLASSIFICATION_TYPE": "U",
    "INTLDES": "22173A",
    "EPOCH": "2023-05-28 21:27:05",
    "EPOCH_MICROSECONDS": "865696",
    "MEAN_MOTION": "14.0985384",
    "ECCENTRICITY": "0.0000983",
    "INCLINATION": "77.6072",
    "RA_OF_ASC_NODE": "101.8128",
    "ARG_OF_PERICENTER": "190.7568",
    "MEAN_ANOMALY": "169.3568",
    "EPHEMERIS_TYPE": "0",
    "ELEMENT_SET_NO": "999",
    "REV_AT_EPOCH": "2302",
    "BSTAR": "0.00013689",
    "MEAN_MOTION_DOT": "0.00000238",
    "MEAN_MOTION_DDOT": "0",
    "FILE": "3919546",
    "TLE_LINE0": "0 SWOT",
    "TLE_LINE1": "1 54754U 22173A   23148.89381789  .00000238  00000-0  13689-3 0  9994",
    "TLE_LINE2": "2 54754  77.6072 101.8128 0000983 190.7568 169.3568 14.09853840 23020",
    "OBJECT_ID": "2022-173A",
    "OBJECT_NUMBER": "54754",
    "SEMIMAJOR_AXIS": "7238.009",
    "PERIOD": "102.138",
    "APOGEE": "860.585",
    "PERIGEE": "859.162",
    "DECAYED": "0"
  },
  {
    "COMMENT": "GENERATED VIA SPACETRACK.ORG API",
    "ORIGINATOR": "18 SPCS",
    "NORAD_CAT_ID": "54754",
    "OBJECT_NAME": "SWOT",
    "OBJECT_TYPE": "PAYLOAD",
    "CLASSIFICATION_TYPE": "U",
    "INTLDES": "22173A",
    "EPOCH": "2023-05-29 12:46:47",
    "EPOCH_MICROSECONDS": "301888",
    "MEAN_MOTION": "14.09854077",
    "ECCENTRICITY": "0.0000977",
    "INCLINATION": "77.6073",
    "RA_OF_ASC_NODE": "100.9366",
    "ARG_OF_PERICENTER": "190.277",
    "MEAN_ANOMALY": "169.8367",
    "EPHEMERIS_TYPE": "0",
    "ELEMENT_SET_NO": "999",
    "REV_AT_EPOCH": "2311",
    "BSTAR": "0.00012896",
    "MEAN_MOTION_DOT": "0.00000224",
    "MEAN_MOTION_DDOT": "0",
    "FILE": "3920065",
    "TLE_LINE0": "0 SWOT",
    "TLE_LINE1": "1 54754U 22173A   23149.53249192  .00000224  00000-0  12896-3 0  9991",
    "TLE_LINE2": "2 54754  77.6073 100.9366 0000977 190.2770 169.8367 14.09854077 23113",
    "OBJECT_ID": "2022-173A",
    "OBJECT_NUMBER": "54754",
    "SEMIMAJOR_AXIS": "7238.008",
    "PERIOD": "102.138",
    "APOGEE": "860.580",
    "PERIGEE": "859.166",
    "DECAYED": "0"
  },
  {
    "COMMENT": "GENERATED VIA SPACETRACK.ORG API",
    "ORIGINATOR": "18 SPCS",
    "NORAD_CAT_ID": "54754",
    "OBJECT_NAME": "SWOT",
    "OBJECT_TYPE": "PAYLOAD",
    "CLASSIFICATION_TYPE": "U",
    "INTLDES": "22173A",
    "EPOCH": "2023-05-29 16:11:09",
    "EPOCH_MICROSECONDS": "842208",
    "MEAN_MOTION": "14.09854147",
    "ECCENTRICITY": "0.0000977",
    "INCLINATION": "77.6074",
    "RA_OF_ASC_NODE": "100.7419",
    "ARG_OF_PERICENTER": "190.0376",
    "MEAN_ANOMALY": "170.0762",
    "EPHEMERIS_TYPE": "0",
    "ELEMENT_SET_NO": "999",
    "REV_AT_EPOCH": "2313",
    "BSTAR": "0.00012987",
    "MEAN_MOTION_DOT": "0.00000226",
    "MEAN_MOTION_DDOT": "0",
    "FILE": "3920310",
    "TLE_LINE0": "0 SWOT",
    "TLE_LINE1": "1 54754U 22173A   23149.67441947  .00000226  00000-0  12987-3 0  9991",
    "TLE_LINE2": "2 54754  77.6074 100.7419 0000977 190.0376 170.0762 14.09854147 23134",
    "OBJECT_ID": "2022-173A",
    "OBJECT_NUMBER": "54754",
    "SEMIMAJOR_AXIS": "7238.008",
    "PERIOD": "102.138",
    "APOGEE": "860.580",
    "PERIGEE": "859.166",
    "DECAYED": "0"
  },
  {
    "COMMENT": "GENERATED VIA SPACETRACK.ORG API",
    "ORIGINATOR": "18 SPCS",
    "NORAD_CAT_ID": "54754",
    "OBJECT_NAME": "SWOT",
    "OBJECT_TYPE": "PAYLOAD",
    "CLASSIFICATION_TYPE": "U",
    "INTLDES": "22173A",
    "EPOCH": "2023-05-29 21:17:43",
    "EPOCH_MICROSECONDS": "650528",
    "MEAN_MOTION": "14.09854229",
    "ECCENTRICITY": "0.0000976",
    "INCLINATION": "77.6074",
    "RA_OF_ASC_NODE": "100.4498",
    "ARG_OF_PERICENTER": "189.7631",
    "MEAN_ANOMALY": "170.3507",
    "EPHEMERIS_TYPE": "0",
    "ELEMENT_SET_NO": "999",
    "REV_AT_EPOCH": "2316",
    "BSTAR": "0.00012466",
    "MEAN_MOTION_DOT": "0.00000217",
    "MEAN_MOTION_DDOT": "0",
    "FILE": "3920354",
    "TLE_LINE0": "0 SWOT",
    "TLE_LINE1": "1 54754U 22173A   23149.88731077  .00000217  00000-0  12466-3 0  9992",
    "TLE_LINE2": "2 54754  77.6074 100.4498 0000976 189.7631 170.3507 14.09854229 23160",
    "OBJECT_ID": "2022-173A",
    "OBJECT_NUMBER": "54754",
    "SEMIMAJOR_AXIS": "7238.008",
    "PERIOD": "102.138",
    "APOGEE": "860.579",
    "PERIGEE": "859.166",
    "DECAYED": "0"
  }
]